OBJECT_NAME,OBJECT_ID,EPOCH,MEAN_MOTION,ECCENTRICITY,INCLINATION,RA_OF_ASC_NODE,ARG_OF_PERICENTER,MEAN_ANOMALY,EPHEMERIS_TYPE,CLASSIFICATION_TYPE,NORAD_CAT_ID,ELEMENT_SET_NO,REV_AT_EPOCH,BSTAR,MEAN_MOTION_DOT,MEAN_MOTION_DDOT
STARLINK-11388 [DTC],2024-220E,2026-06-26T22:25:13.951200,15.70822577,.0001386,43.0015,104.6597,287.8007,72.2710,0,U,62092,999,9213,.15838E-2,.207788E-2,0
STARLINK-11345 [DTC],2024-220F,2026-06-26T22:17:35.094624,15.70845416,.0001701,42.9983,104.6164,300.4003,59.6696,0,U,62093,999,9213,.68889E-3,.88918E-3,0
STARLINK-11381 [DTC],2024-220G,2026-06-27T01:13:03.720864,15.70844816,.0001203,43.0002,103.8062,279.6197,80.4535,0,U,62094,999,9215,.10954E-2,.142576E-2,0
STARLINK-11369 [DTC],2024-220H,2026-06-25T23:08:53.270880,15.70772078,.00008791,42.9990,110.2795,291.9894,68.0880,0,U,62095,999,9208,.12350235E-2,.160661E-2,0
STARLINK-11303 [DTC],2024-220J,2026-06-26T20:23:05.584416,15.70980074,.00019956,43.0024,104.8714,276.6742,83.3899,0,U,62096,999,9222,.13347284E-2,.175512E-2,0
STARLINK-11367 [DTC],2024-220K,2026-06-27T02:21:41.650272,15.70811038,.0001482,43.0009,103.2973,257.8348,102.2354,0,U,62097,999,9226,.37566E-2,.51187E-2,0
STARLINK-11386 [DTC],2024-220L,2026-06-26T12:30:00.625248,15.70837676,.0000768,43.0001,106.7031,259.7075,100.3706,0,U,62098,999,9207,.12088E-2,.157611E-2,0
STARLINK-11380 [DTC],2024-220M,2026-06-26T20:00:09.078624,15.70896699,.00017277,43.0002,104.7432,246.2883,113.7804,0,U,62099,999,9212,.11776041E-2,.15385E-2,0
STARLINK-33566,2024-220N,2026-06-26T16:57:49.902912,15.27577905,.00040051,43.0127,295.1568,251.9788,108.0627,0,U,62100,999,9003,.10519745E-2,.28801E-3,0
STARLINK-33545,2024-220P,2026-06-26T18:01:41.473344,15.27559487,.00010713,43.0034,309.3745,338.0944,21.9862,0,U,62101,999,8970,.64762245E-3,.1759E-3,0
STARLINK-33562,2024-220Q,2026-06-27T02:09:07.360128,15.27576409,.0001836,43.0033,307.6120,284.5268,75.5380,0,U,62102,999,8975,.10474E-2,.28669E-3,0
STARLINK-33554,2024-220R,2026-06-27T01:46:52.937184,15.27608568,.0000691,43.0025,307.4980,2.8832,357.2023,0,U,62103,999,8968,.52361E-3,.14187E-3,0
STARLINK-33555,2024-220S,2026-06-26T15:35:55.526208,15.27573232,.00005617,42.9984,310.3295,272.3298,87.7489,0,U,62104,999,8982,.74145973E-3,.20193E-3,0
STARLINK-33559,2024-220V,2026-06-26T17:04:32.075904,15.27571005,.00017295,43.0015,309.9350,277.0324,83.0331,0,U,62107,999,8986,.93935098E-3,.2567E-3,0
STARLINK-33553,2024-220W,2026-06-26T15:19:16.408704,15.27575273,.0001376,43.0032,310.2474,270.5251,89.5443,0,U,62108,999,8985,.9536E-3,.26068E-3,0
STARLINK-33556,2024-220X,2026-06-27T01:58:01.096032,15.27575560,.0001778,43.0063,307.5533,275.4755,84.5894,0,U,62109,999,8994,.10797E-2,.29564E-3,0
STARLINK-33551,2024-220Y,2026-06-26T16:58:58.924416,15.27574405,.0001844,43.0009,309.9044,274.3530,85.7111,0,U,62110,999,8986,.67729282E-3,.18419E-3,0
STARLINK-32311,2024-222A,2026-06-26T19:54:24.881760,15.27593786,.00024158,42.9977,224.8396,272.5124,87.5451,0,U,62114,999,8977,.5419103E-3,.14687E-3,0
STARLINK-32470,2024-222B,2026-06-26T21:38:57.583104,15.27575965,.0001621,43.0013,239.2402,284.2635,75.8037,0,U,62115,999,8960,.84641E-3,.23099E-3,0
STARLINK-32502,2024-222C,2026-06-26T20:36:15.506784,15.27576420,.00005857,42.9978,239.7666,316.3044,43.7761,0,U,62116,999,8950,.78544292E-3,.21412E-3,0
STARLINK-32521,2024-222D,2026-06-26T10:51:37.784160,15.27596202,.000141,42.9982,238.3035,271.0239,89.0451,0,U,62117,999,8942,.61403E-3,.16681E-3,0
STARLINK-32549,2024-222E,2026-06-26T21:18:35.926848,15.27580568,.0001977,43.0038,239.1296,273.1574,86.9052,0,U,62118,999,8951,.42887E-3,.11558E-3,0
STARLINK-32535,2024-222F,2026-06-26T20:48:03.443328,15.27579538,.0000486,42.9975,236.3717,338.9901,21.0930,0,U,62119,999,8949,.59442E-3,.16131E-3,0
STARLINK-32548,2024-222G,2026-06-26T20:56:36.367296,15.27575132,.000134,42.9982,239.8709,273.8885,86.1814,0,U,62120,999,8945,.68066E-3,.18512E-3,0
STARLINK-32525,2024-222H,2026-06-26T21:27:50.882688,15.27579307,.0001803,43.0009,239.1793,270.7554,89.3091,0,U,62121,999,8946,.61126E-3,.16596E-3,0
STARLINK-32628,2024-222J,2026-06-26T14:02:58.555680,15.27587642,.0001797,43.0008,241.1616,272.7494,87.3152,0,U,62122,999,8957,.82065E-3,.22394E-3,0
STARLINK-32626,2024-222K,2026-06-26T20:47:21.287040,15.27584452,.0001314,42.9965,239.8227,258.3014,101.7690,0,U,62123,999,8944,.53982E-3,.14624E-3,0
STARLINK-32608,2024-222L,2026-06-26T10:45:24.436800,15.27601454,.0000269,42.9983,241.8499,230.5855,129.4972,0,U,62124,999,8937,.67548E-3,.18384E-3,0
STARLINK-32488,2024-222M,2026-06-26T21:02:09.479040,15.27575513,.0001266,43.0005,239.8997,273.1785,86.8922,0,U,62125,999,8934,.8592E-3,.23453E-3,0
STARLINK-32490,2024-222N,2026-06-26T21:22:18.194304,15.27574008,.0001679,43.0044,239.1466,269.8639,90.2020,0,U,62126,999,8945,.96073E-3,.26264E-3,0
STARLINK-32557,2024-222P,2026-06-26T20:16:05.902464,15.27586302,.00018788,43.0011,229.1290,269.0490,91.0146,0,U,62127,999,8961,.52020422E-3,.14083E-3,0
STARLINK-32568,2024-222Q,2026-06-26T20:41:48.495840,15.27574494,.0001388,42.9980,239.7940,278.8551,81.2143,0,U,62128,999,8918,.72062E-3,.19617E-3,0
STARLINK-32462,2024-222R,2026-06-26T20:38:48.047712,15.27573239,.00011029,42.9999,236.3203,272.6074,87.4651,0,U,62129,999,8948,.70735751E-3,.1925E-3,0
STARLINK-32463,2024-222S,2026-06-26T21:33:24.054048,15.27578964,.0001843,43.0021,239.2072,271.7975,88.2665,0,U,62130,999,8945,.73413E-3,.19994E-3,0
STARLINK-32550,2024-222T,2026-06-26T20:51:03.167424,15.27575611,.0001325,42.9989,239.8401,269.9922,90.0778,0,U,62131,999,8949,.60519E-3,.16426E-3,0
STARLINK-32507,2024-222U,2026-06-26T21:13:05.181600,15.27591576,.0000623,43.0000,239.0976,291.8990,68.1795,0,U,62132,999,8930,.7525E-3,.2051E-3,0
STARLINK-32245,2024-222V,2026-06-26T14:14:04.348032,15.27584889,.0001753,42.9973,241.2130,260.5414,99.5240,0,U,62133,999,8956,.49692E-3,.13439E-3,0
STARLINK-32546,2024-222W,2026-06-26T20:44:22.135776,15.27551189,.0001238,42.9984,236.3508,239.3528,120.7202,0,U,62134,999,8937,.67344E-3,.18299E-3,0
STARLINK-32545,2024-222X,2026-06-26T21:07:42.563136,15.27575612,.0001141,42.9996,239.9273,278.4788,81.5935,0,U,62135,999,8949,.73809E-3,.20101E-3,0
STARLINK-32554,2024-222Y,2026-06-26T13:59:16.359936,15.27589926,.0001762,43.0017,241.1383,277.0456,83.0195,0,U,62136,999,8945,.74227E-3,.20226E-3,0
STARLINK-32570,2024-222Z,2026-06-26T12:34:22.043136,15.27593692,.0001888,43.0002,241.5525,276.5350,83.5287,0,U,62137,999,8954,.60608E-3,.1646E-3,0
STARLINK-32529,2024-224A,2026-06-26T22:12:05.392224,15.27582722,.0001345,42.9975,261.4409,268.7774,91.2923,0,U,62139,999,8912,.61735E-3,.16766E-3,0
STARLINK-32464,2024-224B,2026-06-26T22:23:11.042016,15.27580188,.0001997,43.0017,261.4781,264.0916,95.9708,0,U,62140,999,8912,.46715E-3,.12615E-3,0
STARLINK-32482,2024-224C,2026-06-26T23:01:49.941984,15.27601545,.0002896,43.0019,260.8201,272.8000,87.2520,0,U,62141,999,8903,.82248E-3,.22456E-3,0
STARLINK-32454,2024-224D,2026-06-26T22:55:07.766400,15.27558304,.0001792,42.9990,268.5628,282.4177,77.6474,0,U,62142,999,8910,.9456E-3,.25833E-3,0
STARLINK-32485,2024-224E,2026-06-26T22:51:53.351712,15.27572935,.0000952,43.0010,264.2252,262.0596,98.0147,0,U,62143,999,8872,.74302E-3,.20236E-3,0
STARLINK-32388,2024-224F,2026-06-26T22:49:33.421728,15.27571884,.0001414,43.0006,268.5339,282.1439,77.9254,0,U,62144,999,8910,.79214E-3,.21594E-3,0
STARLINK-32374,2024-224G,2026-06-26T21:59:08.020320,15.27574826,.0001206,42.9993,261.3494,271.7897,88.2816,0,U,62145,999,8918,.88567E-3,.24186E-3,0
STARLINK-32384,2024-224H,2026-06-26T22:00:59.194656,15.27580687,.0001537,42.9995,261.3604,281.9327,78.1352,0,U,62146,999,8918,.75514E-3,.20576E-3,0
STARLINK-32295,2024-224J,2026-06-26T22:15:47.518848,15.27572955,.000151,42.9979,261.4357,280.7835,79.2846,0,U,62147,999,8907,.63568E-3,.17268E-3,0
STARLINK-32479,2024-224K,2026-06-26T15:29:33.498240,15.27575894,.00017662,43.0006,262.7657,278.9378,81.1274,0,U,62148,999,8908,.82289892E-3,.22449E-3,0
STARLINK-32468,2024-224L,2026-06-26T13:53:32.953632,15.27584281,.0001563,43.0003,263.1211,267.7756,92.2917,0,U,62149,999,8897,.82571E-3,.22532E-3,0
STARLINK-32629,2024-224M,2026-06-26T22:39:37.660896,15.27592286,.0001876,43.0018,260.7006,271.2800,88.7837,0,U,62150,999,8919,.274E-3,.7288E-4,0
STARLINK-32644,2024-224N,2026-06-26T22:13:56.385984,15.27575970,.0001699,42.9973,261.4212,283.7733,76.2930,0,U,62151,999,8918,.60786E-3,.16501E-3,0
STARLINK-32623,2024-224P,2026-06-26T23:06:41.554080,15.27600348,.0001197,43.0018,264.3007,273.8863,86.1852,0,U,62152,999,8909,.59974E-3,.16288E-3,0
STARLINK-32639,2024-224Q,2026-06-26T22:10:14.376000,15.27576662,.0001532,42.9986,261.4040,285.1885,74.8797,0,U,62153,999,8902,.10282E-2,.28138E-3,0
STARLINK-32625,2024-224R,2026-06-26T22:21:19.751040,15.27591531,.0001623,42.9981,261.4613,269.6185,90.4481,0,U,62154,999,8907,.26628E-3,.7075E-4,0
STARLINK-32635,2024-224S,2026-06-26T23:00:39.437856,15.27571609,.0001386,43.0008,268.5895,282.5326,77.5371,0,U,62155,999,8894,.80217E-3,.21872E-3,0
STARLINK-32532,2024-224T,2026-06-26T15:16:35.029056,15.27600187,.00017772,43.0016,262.6933,288.6399,71.4260,0,U,62156,999,8898,.92432243E-3,.25276E-3,0
STARLINK-32503,2024-224U,2026-06-26T22:44:00.125952,15.27572405,.0001474,42.9988,268.5021,283.6580,76.4107,0,U,62157,999,8867,.68274E-3,.18568E-3,0
STARLINK-32508,2024-224V,2026-06-26T13:59:05.903808,15.27578742,.000176,43.0008,263.1478,278.8670,81.1982,0,U,62158,999,8913,.1875E-3,.4901E-4,0
STARLINK-32524,2024-224W,2026-06-26T13:58:24.004128,15.27588307,.0001912,43.0011,266.6089,277.0342,83.0292,0,U,62159,999,8893,.62592E-3,.17006E-3,0
STARLINK-32484,2024-224X,2026-06-26T22:19:29.056224,15.27571525,.0001357,43.0000,261.4501,266.1251,93.9445,0,U,62160,999,8918,.48421E-3,.13083E-3,0
STARLINK-32497,2024-224Y,2026-06-26T23:12:14.590656,15.27587137,.0001105,43.0018,264.3312,280.8343,79.2385,0,U,62161,999,8914,.595E-3,.1615E-3,0
